{
  "norad_id": 53005,
  "name": "STARLINK-4288",
  "history": [
    {
      "epoch": "2026-03-28T22:27:33.672960Z",
      "apogee_km": 540.6755053137013,
      "perigee_km": 538.8188835535993,
      "latitude_deg": 1.0333685467467217e-05,
      "longitude_deg": -155.51980513426633,
      "height_km": 540.5368506437298,
      "semi_major_axis_km": 6917.88419443365,
      "eccentricity": 0.00013419,
      "inclination_deg": 53.2179,
      "raan_deg": 7.7196,
      "arg_perigee_deg": 83.4346,
      "mean_anomaly_deg": 276.6799,
      "mean_motion_rev_day": 15.08838755
    },
    {
      "epoch": "2026-03-29T01:38:19.722912Z",
      "apogee_km": 540.6362625846896,
      "perigee_km": 538.8431489425557,
      "latitude_deg": 2.3653612319749587e-05,
      "longitude_deg": 156.06305426626176,
      "height_km": 540.459698032458,
      "semi_major_axis_km": 6917.876705763622,
      "eccentricity": 0.0001296,
      "inclination_deg": 53.2167,
      "raan_deg": 7.1249,
      "arg_perigee_deg": 78.6944,
      "mean_anomaly_deg": 281.4194,
      "mean_motion_rev_day": 15.08841205
    },
    {
      "epoch": "2026-03-30T04:39:53.693280Z",
      "apogee_km": 540.8169115474484,
      "perigee_km": 538.6806684155017,
      "latitude_deg": -1.0635158995576988e-06,
      "longitude_deg": 104.50897078035541,
      "height_km": 540.6800510849383,
      "semi_major_axis_km": 6917.885789981475,
      "eccentricity": 0.0001544,
      "inclination_deg": 53.2206,
      "raan_deg": 2.0723,
      "arg_perigee_deg": 91.9031,
      "mean_anomaly_deg": 268.2138,
      "mean_motion_rev_day": 15.08838233
    },
    {
      "epoch": "2026-03-31T10:52:13.517472Z",
      "apogee_km": 540.7353688543208,
      "perigee_km": 538.7694430429383,
      "latitude_deg": -2.0574537354645413e-05,
      "longitude_deg": 4.535860959964977,
      "height_km": 540.5068287030307,
      "semi_major_axis_km": 6917.889405948629,
      "eccentricity": 0.00014209,
      "inclination_deg": 53.2201,
      "raan_deg": 356.4223,
      "arg_perigee_deg": 81.7227,
      "mean_anomaly_deg": 278.3926,
      "mean_motion_rev_day": 15.0883705
    },
    {
      "epoch": "2026-04-01T10:43:00.693120Z",
      "apogee_km": 540.7499076722406,
      "perigee_km": 538.745104742341,
      "latitude_deg": 6.67454032021208e-06,
      "longitude_deg": 1.4002789407036451,
      "height_km": 540.5204040817747,
      "semi_major_axis_km": 6917.8845062072905,
      "eccentricity": 0.0001449,
      "inclination_deg": 53.2196,
      "raan_deg": 351.9626,
      "arg_perigee_deg": 82.9555,
      "mean_anomaly_deg": 277.1602,
      "mean_motion_rev_day": 15.08838653
    },
    {
      "epoch": "2026-04-02T16:55:19.869312Z",
      "apogee_km": 540.7770163336318,
      "perigee_km": 538.7127203841128,
      "latitude_deg": -2.24090150524769e-05,
      "longitude_deg": -98.57093099667915,
      "height_km": 540.5393785633402,
      "semi_major_axis_km": 6917.8818683588715,
      "eccentricity": 0.0001492,
      "inclination_deg": 53.2195,
      "raan_deg": 346.3118,
      "arg_perigee_deg": 84.3704,
      "mean_anomaly_deg": 275.7458,
      "mean_motion_rev_day": 15.08839516
    },
    {
      "epoch": "2026-04-02T21:41:29.295456Z",
      "apogee_km": 540.6562749551431,
      "perigee_km": 538.8397767050619,
      "latitude_deg": -4.20030770796599e-05,
      "longitude_deg": -171.20068860318656,
      "height_km": 540.7955850515801,
      "semi_major_axis_km": 6917.885025830103,
      "eccentricity": 0.00013129,
      "inclination_deg": 53.2186,
      "raan_deg": 345.4172,
      "arg_perigee_deg": 99.6105,
      "mean_anomaly_deg": 260.5035,
      "mean_motion_rev_day": 15.08838483
    },
    {
      "epoch": "2026-04-03T02:27:39.614112Z",
      "apogee_km": 540.6424726931464,
      "perigee_km": 538.8883693552716,
      "latitude_deg": -2.2707667570898088e-05,
      "longitude_deg": 116.17515364399213,
      "height_km": 540.298243647918,
      "semi_major_axis_km": 6917.902421024209,
      "eccentricity": 0.00012678,
      "inclination_deg": 53.219,
      "raan_deg": 344.5319,
      "arg_perigee_deg": 65.5261,
      "mean_anomaly_deg": 294.5863,
      "mean_motion_rev_day": 15.08832792
    },
    {
      "epoch": "2026-04-03T21:32:18.033216Z",
      "apogee_km": 540.7069053261866,
      "perigee_km": 538.8493067619102,
      "latitude_deg": 2.65333397635023e-05,
      "longitude_deg": -174.3371678639692,
      "height_km": 540.3409786084552,
      "semi_major_axis_km": 6917.915106044048,
      "eccentricity": 0.00013426,
      "inclination_deg": 53.2184,
      "raan_deg": 340.9631,
      "arg_perigee_deg": 68.9846,
      "mean_anomaly_deg": 291.129,
      "mean_motion_rev_day": 15.08828642
    },
    {
      "epoch": "2026-04-04T22:58:26.645376Z",
      "apogee_km": 540.5204406496896,
      "perigee_km": 538.9509136966926,
      "latitude_deg": 1.2629234463070057e-05,
      "longitude_deg": 158.3215287490222,
      "height_km": 540.5801676766404,
      "semi_major_axis_km": 6917.872677173191,
      "eccentricity": 0.00011344,
      "inclination_deg": 53.2184,
      "raan_deg": 336.2023,
      "arg_perigee_deg": 86.2274,
      "mean_anomaly_deg": 273.8848,
      "mean_motion_rev_day": 15.08842523
    },
    {
      "epoch": "2026-04-05T21:13:51.480768Z",
      "apogee_km": 540.6876729718197,
      "perigee_km": 538.8046251786409,
      "latitude_deg": -4.962060213889738e-06,
      "longitude_deg": 179.38957489424436,
      "height_km": 540.6194747611,
      "semi_major_axis_km": 6917.88314907523,
      "eccentricity": 0.0001361,
      "inclination_deg": 53.2191,
      "raan_deg": 332.0379,
      "arg_perigee_deg": 88.6269,
      "mean_anomaly_deg": 271.4879,
      "mean_motion_rev_day": 15.08839097
    },
    {
      "epoch": "2026-04-05T22:49:14.560608Z",
      "apogee_km": 540.679828377999,
      "perigee_km": 538.8187786046337,
      "latitude_deg": 1.338667104797899e-05,
      "longitude_deg": 155.18073393492668,
      "height_km": 540.8120082333251,
      "semi_major_axis_km": 6917.886303491316,
      "eccentricity": 0.00013451,
      "inclination_deg": 53.2189,
      "raan_deg": 331.7405,
      "arg_perigee_deg": 100.3259,
      "mean_anomaly_deg": 259.7885,
      "mean_motion_rev_day": 15.08838065
    },
    {
      "epoch": "2026-04-07T00:15:24.710688Z",
      "apogee_km": 540.7231118241252,
      "perigee_km": 538.7555294410113,
      "latitude_deg": 7.814469930057031e-06,
      "longitude_deg": 127.8380095149728,
      "height_km": 540.5860692875839,
      "semi_major_axis_km": 6917.876320632568,
      "eccentricity": 0.00014221,
      "inclination_deg": 53.2194,
      "raan_deg": 326.9847,
      "arg_perigee_deg": 87.14,
      "mean_anomaly_deg": 272.9755,
      "mean_motion_rev_day": 15.08841331
    },
    {
      "epoch": "2026-04-07T20:55:25.097664Z",
      "apogee_km": 540.6700733356247,
      "perigee_km": 538.8063977471684,
      "latitude_deg": 4.024852434193197e-05,
      "longitude_deg": 173.1209644481444,
      "height_km": 540.623716918501,
      "semi_major_axis_km": 6917.875235541396,
      "eccentricity": 0.0001347,
      "inclination_deg": 53.2194,
      "raan_deg": 323.118,
      "arg_perigee_deg": 89.3574,
      "mean_anomaly_deg": 270.7573,
      "mean_motion_rev_day": 15.08841686
    },
    {
      "epoch": "2026-04-08T14:24:39.804480Z",
      "apogee_km": 540.6830570226293,
      "perigee_km": 538.8138443738508,
      "latitude_deg": 1.9838048506217078e-05,
      "longitude_deg": -93.17891411684353,
      "height_km": 540.5972943141777,
      "semi_major_axis_km": 6917.88545069824,
      "eccentricity": 0.0001351,
      "inclination_deg": 53.2188,
      "raan_deg": 319.8476,
      "arg_perigee_deg": 87.116,
      "mean_anomaly_deg": 272.9987,
      "mean_motion_rev_day": 15.08838344
    },
    {
      "epoch": "2026-04-09T19:01:36.100416Z",
      "apogee_km": 540.6899821225961,
      "perigee_km": 538.7958665993065,
      "latitude_deg": 2.912926384261505e-05,
      "longitude_deg": -168.94167963251354,
      "height_km": 540.573748987238,
      "semi_major_axis_km": 6917.879924360951,
      "eccentricity": 0.0001369,
      "inclination_deg": 53.2188,
      "raan_deg": 314.4946,
      "arg_perigee_deg": 86.0633,
      "mean_anomaly_deg": 274.0516,
      "mean_motion_rev_day": 15.08840152
    },
    {
      "epoch": "2026-04-09T20:36:59.211360Z",
      "apogee_km": 540.6918566251325,
      "perigee_km": 538.7922070429913,
      "latitude_deg": -1.0009354729459711e-05,
      "longitude_deg": 166.8493066384586,
      "height_km": 540.5752477322375,
      "semi_major_axis_km": 6917.879031834062,
      "eccentricity": 0.0001373,
      "inclination_deg": 53.2187,
      "raan_deg": 314.1972,
      "arg_perigee_deg": 86.22,
      "mean_anomaly_deg": 273.8949,
      "mean_motion_rev_day": 15.08840444
    },
    {
      "epoch": "2026-04-11T20:18:33.388128Z",
      "apogee_km": 540.7247693309291,
      "perigee_km": 538.7628583321275,
      "latitude_deg": -2.0552730448960485e-05,
      "longitude_deg": 160.5770166851329,
      "height_km": 540.574323040037,
      "semi_major_axis_km": 6917.880813831528,
      "eccentricity": 0.0001418,
      "inclination_deg": 53.2181,
      "raan_deg": 305.276,
      "arg_perigee_deg": 86.189,
      "mean_anomaly_deg": 273.9264,
      "mean_motion_rev_day": 15.08839861
    },
    {
      "epoch": "2026-04-13T05:41:39.595776Z",
      "apogee_km": 540.7228927738661,
      "perigee_km": 538.7838081086365,
      "latitude_deg": 7.401729393699055e-06,
      "longitude_deg": 12.1845960600814,
      "height_km": 540.5525417782177,
      "semi_major_axis_km": 6917.890350441251,
      "eccentricity": 0.00014015,
      "inclination_deg": 53.2174,
      "raan_deg": 299.0305,
      "arg_perigee_deg": 84.2898,
      "mean_anomaly_deg": 275.8254,
      "mean_motion_rev_day": 15.08836741
    }
  ]
}